      2.10          N: GNSS NAV DATA                        RINEX VERSION / TYPE
fic2rin                                 07/29/2023 00:17:45 PGM / RUN BY / DATE
                                                            END OF HEADER
30 23  7 28 12  0  0.0 -.500922556967D-03  .295585778076D-11  .000000000000D+00
     .230000000000D+02 -.359375000000D+01  .520771692231D-08  .237200153070D+00
    -.100582838058D-06  .658600986935D-02  .722520053387D-05  .515378222275D+04
     .475200000000D+06  .260770320892D-07 -.188695014227D+01  .180676579475D-06
     .935136442472D+00  .227500000000D+03 -.254628862552D+01 -.834999066777D-08
    -.166792661870D-09  .100000000000D+01  .227200000000D+04  .000000000000D+00
     .240000000000D+01  .000000000000D+00  .372529029846D-08  .230000000000D+02
     .468000000000D+06  .400000000000D+01
20 23  7 28 12  0  0.0  .420265831053D-03 -.204636307899D-11  .000000000000D+00
     .290000000000D+02 -.943125000000D+02  .456697594717D-08  .183866167418D+01
    -.483170151711D-05  .404854200315D-02  .849179923534D-05  .515359291458D+04
     .475200000000D+06 -.633299350739D-07  .212526019958D+01  .204890966415D-07
     .949366938589D+00  .213281250000D+03 -.287366160071D+01 -.804712090917D-08
    -.942896418278D-10  .100000000000D+01  .227200000000D+04  .000000000000D+00
     .240000000000D+01  .000000000000D+00 -.838190317154D-08  .290000000000D+02
     .468000000000D+06  .400000000000D+01
26 23  7 28 12  0  0.0  .235007144511D-03 -.125055521494D-11  .000000000000D+00
     .340000000000D+02  .723750000000D+02  .495734935064D-08 -.127607976322D+01
     .362098217010D-05  .800502719358D-02  .971369445324D-05  .515372868538D+04
     .475200000000D+06  .119209289551D-06 -.916737626076D+00 -.126659870148D-06
     .933206528758D+00  .171125000000D+03  .461499801513D+00 -.811176645906D-08
    -.186079179516D-09  .100000000000D+01  .227200000000D+04  .000000000000D+00
     .240000000000D+01  .000000000000D+00  .698491930962D-08  .340000000000D+02
     .468000000000D+06  .400000000000D+01
24 23  7 28 12  0  0.0 -.272146426141D-03 -.119371179608D-10  .000000000000D+00
     .770000000000D+02  .140625000000D+01  .532700760553D-08  .130597482478D+01
    -.372529029846D-08  .141291194595D-01  .721402466297D-05  .515363687515D+04
     .475200000000D+06 -.212341547012D-06 -.198389701679D+01  .819563865662D-07
     .933661211011D+00  .227843750000D+03  .904876934362D+00 -.848606776450D-08
    -.281797452281D-09  .100000000000D+01  .227200000000D+04  .000000000000D+00
     .240000000000D+01  .000000000000D+00  .279396772385D-08  .770000000000D+02
     .468000000000D+06  .400000000000D+01
16 23  7 28 12  0  0.0 -.475420616567D-03  .466116034659D-11  .000000000000D+00
     .940000000000D+02  .893125000000D+02  .419410327266D-08 -.216666346422D+01
     .421516597271D-05  .133023501839D-01  .100266188383D-04  .515364034653D+04
     .475200000000D+06  .122934579849D-06 -.758682501189D+00 -.115483999252D-06
     .964464747634D+00  .183250000000D+03  .789752822866D+00 -.764031824992D-08
     .357157734196D-12  .100000000000D+01  .227200000000D+04  .000000000000D+00
     .340000000000D+01  .000000000000D+00 -.102445483208D-07  .940000000000D+02
     .468000000000D+06  .400000000000D+01
15 23  7 28 12  0  0.0  .622477382421D-04  .363797880709D-11  .000000000000D+00
     .600000000000D+02 -.167500000000D+02  .506985403691D-08  .218355484155D+01
    -.112131237984D-05  .151743469760D-01  .802427530289D-05  .515375421333D+04
     .475200000000D+06  .143423676491D-06 -.308378450796D+01 -.260770320892D-06
     .933249668749D+00  .208937500000D+03  .122032044898D+01 -.804462080503D-08
     .388230457071D-09  .100000000000D+01  .227200000000D+04  .000000000000D+00
     .240000000000D+01  .000000000000D+00 -.107102096081D-07  .600000000000D+02
     .468000000000D+06  .400000000000D+01
9  23  7 28 12  0  0.0 -.101073645055D-03  .954969436862D-11  .000000000000D+00
     .126000000000D+03 -.918750000000D+01  .459447709270D-08 -.261534212149D+01
    -.474974513054D-06  .254817097448D-02  .795722007751D-05  .515356898499D+04
     .475200000000D+06  .316649675369D-07 -.296385163844D+01  .130385160446D-07
     .956805811191D+00  .225531250000D+03  .193855568787D+01 -.792283001767D-08
     .308941440080D-09  .100000000000D+01  .227200000000D+04  .000000000000D+00
     .240000000000D+01  .000000000000D+00  .931322574615D-09  .126000000000D+03
     .468000000000D+06  .400000000000D+01
7  23  7 28 12  0  0.0  .112112611532D-03 -.110276232590D-10  .000000000000D+00
     .115000000000D+03 -.571875000000D+01  .493877714846D-08  .314848061611D+00
    -.197440385818D-06  .175057502929D-01  .735372304916D-05  .515372610664D+04
     .475200000000D+06 -.283122062683D-06 -.189211703726D+01  .298023223877D-06
     .950007607470D+00  .236062500000D+03 -.217921332347D+01 -.832820404598D-08
    -.252153360342D-09  .100000000000D+01  .227200000000D+04  .000000000000D+00
     .240000000000D+01  .000000000000D+00 -.111758708954D-07  .115000000000D+03
     .468000000000D+06  .400000000000D+01
21 23  7 28 12  0  0.0  .151579268277D-03 -.568434188608D-12  .000000000000D+00
     .850000000000D+02 -.475312500000D+02  .459626288137D-08 -.313394189047D+01
    -.220350921154D-05  .246856535086D-01  .165402889252D-05  .515359710884D+04
     .475200000000D+06 -.726431608200D-07  .116037220781D+01  .411644577980D-06
     .961700231841D+00  .346750000000D+03 -.729383777693D+00 -.796426031484D-08
    -.104647216119D-09  .100000000000D+01  .227200000000D+04  .000000000000D+00
     .240000000000D+01  .000000000000D+00 -.102445483208D-07  .850000000000D+02
     .468000000000D+06  .400000000000D+01
19 23  7 28 12  0  0.0  .349958892912D-03  .511590769747D-11  .000000000000D+00
     .101000000000D+03  .695000000000D+02  .447018620120D-08 -.101315621016D+01
     .361353158951D-05  .948765594512D-02  .380352139473D-05  .515363728905D+04
     .475200000000D+06 -.204890966415D-07  .306488242580D+00 -.113621354103D-06
     .972773816574D+00  .314812500000D+03  .236774149570D+01 -.829320258803D-08
     .201794119821D-09  .100000000000D+01  .227200000000D+04  .000000000000D+00
     .240000000000D+01  .000000000000D+00 -.153668224812D-07  .101000000000D+03
     .468000000000D+06  .400000000000D+01
17 23  7 28 12  0  0.0  .721805728972D-03  .682121026330D-12  .000000000000D+00
     .720000000000D+02  .832187500000D+02  .434875257157D-08  .311531463064D+01
     .436976552010D-05  .136155840009D-01  .370666384697D-05  .515355911064D+04
     .475200000000D+06  .331550836563D-06  .262017668830D+00  .126659870148D-06
     .973699922716D+00  .311593750000D+03 -.140629643334D+01 -.795354558281D-08
     .126790995640D-09  .100000000000D+01  .227200000000D+04  .000000000000D+00
     .240000000000D+01  .000000000000D+00 -.111758708954D-07  .720000000000D+02
     .468000000000D+06  .400000000000D+01
13 23  7 28 12  0  0.0  .552920624614D-03  .488853402203D-11  .000000000000D+00
     .900000000000D+02 -.665625000000D+01  .429839333105D-08  .279743204976D+01
    -.359490513802D-06  .725360354409D-02  .747293233871D-05  .515366435051D+04
     .475200000000D+06  .540167093277D-07 -.280267616927D+01 -.521540641785D-07
     .970330664384D+00  .239500000000D+03  .918605257516D+00 -.771389274317D-08
     .325727853587D-09  .100000000000D+01  .227200000000D+04  .000000000000D+00
     .240000000000D+01  .000000000000D+00 -.111758708954D-07  .900000000000D+02
     .468000000000D+06  .400000000000D+01
14 23  7 28 12  0  0.0  .136409420520D-03  .118234311230D-10  .000000000000D+00
     .240000000000D+02  .660000000000D+02  .465412243431D-08 -.446741563551D+00
     .356137752533D-05  .342759862542D-02  .899098813534D-05  .515368316269D+04
     .475200000000D+06  .521540641785D-07 -.816509868102D+00  .111758708954D-07
     .948107503637D+00  .198656250000D+03 -.296112589144D+01 -.804533512050D-08
    -.115004790411D-09  .100000000000D+01  .227200000000D+04  .000000000000D+00
     .240000000000D+01  .000000000000D+00 -.791624188423D-08  .280000000000D+03
     .468000000000D+06  .400000000000D+01
18 23  7 28 12  0  0.0 -.362100079656D-03 -.138697942020D-10  .000000000000D+00
     .840000000000D+02 -.772187500000D+02  .447018620120D-08  .116074830210D+01
    -.387243926525D-05  .351616577245D-02  .254251062870D-05  .515366880608D+04
     .475200000000D+06  .614672899246D-07  .126585660056D+01 -.204890966415D-07
     .973881308466D+00  .333500000000D+03  .313100409642D+01 -.832320383771D-08
    -.297869550320D-09  .100000000000D+01  .227200000000D+04  .000000000000D+00
     .240000000000D+01  .000000000000D+00 -.838190317154D-08  .596000000000D+03
     .468000000000D+06  .400000000000D+01
28 23  7 28 12  0  0.0  .803894363344D-04 -.227373675443D-11  .000000000000D+00
     .152000000000D+03 -.781250000000D+00  .458304804520D-08 -.112154269006D+01
     .689178705215D-07  .631064642221D-03  .715069472790D-05  .515370961952D+04
     .475200000000D+06  .409781932831D-07 -.192873774913D+01 -.111758708954D-07
     .961174249886D+00  .240781250000D+03  .163482507952D+01 -.793854495798D-08
    -.174292974288D-09  .100000000000D+01  .227200000000D+04  .000000000000D+00
     .240000000000D+01  .000000000000D+00 -.977888703346D-08  .408000000000D+03
     .468000000000D+06  .400000000000D+01
23 23  7 28 12  0  0.0  .483160838485D-04  .443378667114D-11  .000000000000D+00
     .137000000000D+03 -.105468750000D+03  .403016787267D-08  .125052916019D+00
    -.570341944695D-05  .342414714396D-02  .938959419727D-05  .515367275810D+04
     .475200000000D+06  .298023223877D-07  .226604407852D+01  .502914190292D-07
     .974771750127D+00  .205500000000D+03 -.310381116450D+01 -.779353891789D-08
    -.178578867098D-10  .100000000000D+01  .227200000000D+04  .000000000000D+00
     .240000000000D+01  .000000000000D+00 -.838190317154D-08  .905000000000D+03
     .468000000000D+06  .400000000000D+01
